{
  "type": "FeatureCollection",
  "features": [
    {
      "type": "Feature",
      "properties": {
        "norad_id": 41890,
        "name": "CYGFM07",
        "group": "weather",
        "lat": 34.21878268782714,
        "lon": 112.32791197338813,
        "alt_km": 414.5472984459848,
        "timestamp": "2025-12-14T14:39:29.019011+00:00",
        "meta_object_name": "CYGFM07",
        "meta_object_id": "2016-078G",
        "meta_epoch": "2025-12-13T10:24:08.339904",
        "meta_mean_motion": 15.50044004,
        "meta_eccentricity": 0.0009911,
        "meta_inclination": 34.9485,
        "meta_ra_of_asc_node": 16.9056,
        "meta_arg_of_pericenter": 221.9296,
        "meta_mean_anomaly": 138.0668,
        "meta_ephemeris_type": 0,
        "meta_classification_type": "U",
        "meta_norad_cat_id": 41890,
        "meta_element_set_no": 999,
        "meta_rev_at_epoch": 50006,
        "meta_bstar": 0.00055257026,
        "meta_mean_motion_dot": 0.00032139,
        "meta_mean_motion_ddot": 0,
        "tle_line1": "1 41890U 16078G   25347.43342986  .00032139  00000+0  55257-3 0  9998",
        "tle_line2": "2 41890  34.9485  16.9056 0009911 221.9296 138.0668 15.50044004500061"
      },
      "geometry": {
        "type": "Point",
        "coordinates": [
          112.32791197338813,
          34.21878268782714
        ]
      }
    },
    {
      "type": "Feature",
      "properties": {
        "norad_id": 41891,
        "name": "CYGFM03",
        "group": "weather",
        "lat": -31.26602771005252,
        "lon": -49.30614405523331,
        "alt_km": 416.92731874470246,
        "timestamp": "2025-12-14T14:39:29.019021+00:00",
        "meta_object_name": "CYGFM03",
        "meta_object_id": "2016-078H",
        "meta_epoch": "2025-12-13T18:50:32.330688",
        "meta_mean_motion": 15.4995643,
        "meta_eccentricity": 0.00094062,
        "meta_inclination": 34.9441,
        "meta_ra_of_asc_node": 16.5185,
        "meta_arg_of_pericenter": 212.6304,
        "meta_mean_anomaly": 147.3837,
        "meta_ephemeris_type": 0,
        "meta_classification_type": "U",
        "meta_norad_cat_id": 41891,
        "meta_element_set_no": 999,
        "meta_rev_at_epoch": 50009,
        "meta_bstar": 0.00042258031,
        "meta_mean_motion_dot": 0.00024462,
        "meta_mean_motion_ddot": 0,
        "tle_line1": "1 41891U 16078H   25347.78509642  .00024462  00000+0  42258-3 0  9998",
        "tle_line2": "2 41891  34.9441  16.5185 0009406 212.6304 147.3837 15.49956430500096"
      },
      "geometry": {
        "type": "Point",
        "coordinates": [
          -49.30614405523331,
          -31.26602771005252
        ]
      }
    },
    {
      "type": "Feature",
      "properties": {
        "norad_id": 43010,
        "name": "FENGYUN 3D",
        "group": "weather",
        "lat": -24.521070027334673,
        "lon": 130.8080374307673,
        "alt_km": 831.2877192089045,
        "timestamp": "2025-12-14T14:39:29.019032+00:00",
        "meta_object_name": "FENGYUN 3D",
        "meta_object_id": "2017-072A",
        "meta_epoch": "2025-12-13T22:28:24.742272",
        "meta_mean_motion": 14.19684562,
        "meta_eccentricity": 9.767e-05,
        "meta_inclination": 98.9892,
        "meta_ra_of_asc_node": 314.2645,
        "meta_arg_of_pericenter": 177.8445,
        "meta_mean_anomaly": 182.2735,
        "meta_ephemeris_type": 0,
        "meta_classification_type": "U",
        "meta_norad_cat_id": 43010,
        "meta_element_set_no": 999,
        "meta_rev_at_epoch": 41870,
        "meta_bstar": 7.6432679e-05,
        "meta_mean_motion_dot": 1.16e-06,
        "meta_mean_motion_ddot": 0,
        "tle_line1": "1 43010U 17072A   25347.93639748  .00000116  00000+0  76433-4 0  9999",
        "tle_line2": "2 43010  98.9892 314.2645 0000976 177.8445 182.2735 14.19684562418702"
      },
      "geometry": {
        "type": "Point",
        "coordinates": [
          130.8080374307673,
          -24.521070027334673
        ]
      }
    },
    {
      "type": "Feature",
      "properties": {
        "norad_id": 43013,
        "name": "NOAA 20 (JPSS-1)",
        "group": "weather",
        "lat": -4.129548003512566,
        "lon": -74.47522982812247,
        "alt_km": 830.3278823842511,
        "timestamp": "2025-12-14T14:39:29.019043+00:00",
        "meta_object_name": "NOAA 20 (JPSS-1)",
        "meta_object_id": "2017-073A",
        "meta_epoch": "2025-12-13T21:45:40.066272",
        "meta_mean_motion": 14.19526091,
        "meta_eccentricity": 0.00021449,
        "meta_inclination": 98.7599,
        "meta_ra_of_asc_node": 284.1907,
        "meta_arg_of_pericenter": 85.6594,
        "meta_mean_anomaly": 274.4827,
        "meta_ephemeris_type": 0,
        "meta_classification_type": "U",
        "meta_norad_cat_id": 43013,
        "meta_element_set_no": 999,
        "meta_rev_at_epoch": 41818,
        "meta_bstar": 8.1531541e-05,
        "meta_mean_motion_dot": 1.28e-06,
        "meta_mean_motion_ddot": 0,
        "tle_line1": "1 43013U 17073A   25347.90671373  .00000128  00000+0  81532-4 0  9999",
        "tle_line2": "2 43013  98.7599 284.1907 0002144  85.6594 274.4827 14.19526091418183"
      },
      "geometry": {
        "type": "Point",
        "coordinates": [
          -74.47522982812247,
          -4.129548003512566
        ]
      }
    },
    {
      "type": "Feature",
      "properties": {
        "norad_id": 43226,
        "name": "GOES 17",
        "group": "weather",
        "lat": 0.36256354012334346,
        "lon": -146.137268102646,
        "alt_km": 35780.09754153987,
        "timestamp": "2025-12-14T14:39:29.019056+00:00",
        "meta_object_name": "GOES 17",
        "meta_object_id": "2018-022A",
        "meta_epoch": "2025-12-13T21:35:06.317088",
        "meta_mean_motion": 1.0027171,
        "meta_eccentricity": 0.00032277,
        "meta_inclination": 0.4629,
        "meta_ra_of_asc_node": 89.1019,
        "meta_arg_of_pericenter": 188.863,
        "meta_mean_anomaly": 39.1437,
        "meta_ephemeris_type": 0,
        "meta_classification_type": "U",
        "meta_norad_cat_id": 43226,
        "meta_element_set_no": 999,
        "meta_rev_at_epoch": 2856,
        "meta_bstar": 0,
        "meta_mean_motion_dot": -1.66e-06,
        "meta_mean_motion_ddot": 0,
        "tle_line1": "1 43226U 18022A   25347.89937867 -.00000166  00000+0  00000+0 0  9990",
        "tle_line2": "2 43226   0.4629  89.1019 0003227 188.8630  39.1437  1.00271710 28563"
      },
      "geometry": {
        "type": "Point",
        "coordinates": [
          -146.137268102646,
          0.36256354012334346
        ]
      }
    },
    {
      "type": "Feature",
      "properties": {
        "norad_id": 43491,
        "name": "FENGYUN 2H",
        "group": "weather",
        "lat": -2.165059647542664,
        "lon": 22.795695965864805,
        "alt_km": 35794.51058733435,
        "timestamp": "2025-12-14T14:39:29.019069+00:00",
        "meta_object_name": "FENGYUN 2H",
        "meta_object_id": "2018-050A",
        "meta_epoch": "2025-12-14T00:05:59.364384",
        "meta_mean_motion": 1.00271275,
        "meta_eccentricity": 0.00027184,
        "meta_inclination": 2.5544,
        "meta_ra_of_asc_node": 81.3175,
        "meta_arg_of_pericenter": 167.4258,
        "meta_mean_anomaly": 275.0407,
        "meta_ephemeris_type": 0,
        "meta_classification_type": "U",
        "meta_norad_cat_id": 43491,
        "meta_element_set_no": 999,
        "meta_rev_at_epoch": 2758,
        "meta_bstar": 0,
        "meta_mean_motion_dot": -1.14e-06,
        "meta_mean_motion_ddot": 0,
        "tle_line1": "1 43491U 18050A   25348.00415931 -.00000114  00000+0  00000+0 0  9995",
        "tle_line2": "2 43491   2.5544  81.3175 0002718 167.4258 275.0407  1.00271275 27581"
      },
      "geometry": {
        "type": "Point",
        "coordinates": [
          22.795695965864805,
          -2.165059647542664
        ]
      }
    },
    {
      "type": "Feature",
      "properties": {
        "norad_id": 43689,
        "name": "METOP-C",
        "group": "weather",
        "lat": 29.374562990847313,
        "lon": -128.70787713557786,
        "alt_km": 819.2069025426681,
        "timestamp": "2025-12-14T14:39:29.019086+00:00",
        "meta_object_name": "METOP-C",
        "meta_object_id": "2018-087A",
        "meta_epoch": "2025-12-13T22:45:00.537696",
        "meta_mean_motion": 14.21484945,
        "meta_eccentricity": 0.00011919,
        "meta_inclination": 98.693,
        "meta_ra_of_asc_node": 45.6992,
        "meta_arg_of_pericenter": 37.2366,
        "meta_mean_anomaly": 322.8894,
        "meta_ephemeris_type": 0,
        "meta_classification_type": "U",
        "meta_norad_cat_id": 43689,
        "meta_element_set_no": 999,
        "meta_rev_at_epoch": 36851,
        "meta_bstar": 0.00010943913,
        "meta_mean_motion_dot": 1.96e-06,
        "meta_mean_motion_ddot": 0,
        "tle_line1": "1 43689U 18087A   25347.94792289  .00000196  00000+0  10944-3 0  9991",
        "tle_line2": "2 43689  98.6930  45.6992 0001191  37.2366 322.8894 14.21484945368512"
      },
      "geometry": {
        "type": "Point",
        "coordinates": [
          -128.70787713557786,
          29.374562990847313
        ]
      }
    }
  ]
}